[{"OBJECT_NAME":"TWILIGHT-1 OBJECT AM","OBJECT_ID":"2026-004AM","EPOCH":"2026-03-09T21:33:48.157056","MEAN_MOTION":15.18322699,"ECCENTRICITY":0.0006202,"INCLINATION":97.4587,"RA_OF_ASC_NODE":69.4247,"ARG_OF_PERICENTER":348.8142,"MEAN_ANOMALY":11.2953,"EPHEMERIS_TYPE":0,"CLASSIFICATION_TYPE":"U","NORAD_CAT_ID":67398,"ELEMENT_SET_NO":999,"REV_AT_EPOCH":869,"BSTAR":0.00056644606,"MEAN_MOTION_DOT":0.00011571,"MEAN_MOTION_DDOT":0},{"OBJECT_NAME":"SL-3 R\/B","OBJECT_ID":"1981-103B","EPOCH":"2026-03-09T21:41:31.338816","MEAN_MOTION":15.21379038,"ECCENTRICITY":0.00124427,"INCLINATION":81.1587,"RA_OF_ASC_NODE":213.1807,"ARG_OF_PERICENTER":286.2286,"MEAN_ANOMALY":73.7576,"EPHEMERIS_TYPE":0,"CLASSIFICATION_TYPE":"U","NORAD_CAT_ID":12904,"ELEMENT_SET_NO":999,"REV_AT_EPOCH":97326,"BSTAR":0.00027179641,"MEAN_MOTION_DOT":6.129e-5,"MEAN_MOTION_DDOT":0}]
